PERSEUS-M1              
1 40039U 14033AF  26133.37918625  .00001314  00000+0  12397-3 0  9996
2 40039  97.9628  76.9475 0012844  57.4952 302.7508 14.95509627645433
AEROCUBE 6A             
1 40045U 14033AM  26134.02158462  .00004629  00000+0  39345-3 0  9995
2 40045  97.7216 301.3503 0040277 128.3856 232.0995 14.97717741641509
AEROCUBE 6B             
1 40046U 14033AN  26133.99008242  .00004195  00000+0  34478-3 0  9991
2 40046  97.7168 301.0403 0038036 121.9605 238.5325 14.99137650641632
CANX-4                  
1 40055U 14034C   26134.10561301  .00000557  00000+0  78859-4 0  9996
2 40055  98.3168   8.1615 0013940 117.8576 242.4050 14.81198704639484
CANX-5                  
1 40056U 14034D   26134.10443951  .00000557  00000+0  78790-4 0  9991
2 40056  98.3170   8.2017 0013940 118.0670 242.1953 14.81215717630296
AEROCUBE 5C             
1 40965U 15058B   26134.03861772  .00002047  00000+0  19000-3 0  9998
2 40965  64.7689   8.8090 0129813  76.6948 284.8602 14.91252921360561
AEROCUBE 7              
1 40966U 15058C   26133.99793941  .00003019  00000+0  25009-3 0  9991
2 40966  64.7634 351.8827 0119620  75.4140 286.0204 14.95451715360846
FOX-1A (AO-85)          
1 40967U 15058D   26134.07503684  .00002141  00000+0  20086-3 0  9990
2 40967  64.7769  24.9767 0129017  69.9651 291.5296 14.90761336108483
SINOD-D 1               
1 40968U 15058E   26133.97996667  .00003055  00000+0  25286-3 0  9998
2 40968  64.7765   6.0138 0117514  66.7867 294.5572 14.95629897111547
LMRST-SAT               
1 40971U 15058H   26134.08883287  .00002144  00000+0  20225-3 0  9994
2 40971  64.7775  21.2078 0130805  71.9932 289.5384 14.90386860108471
PROPCUBE 3              
1 40973U 15058K   26134.00687632  .00002594  00000+0  22359-3 0  9993
2 40973  64.7699 359.3090 0122957  73.5277 287.9306 14.94016737109694
BISONSAT                
1 40974U 15058L   26133.79202600  .00007824  00000+0  39045-3 0  9998
2 40974  64.7593 284.7776 0078714  62.0772 298.8293 15.15476100110409
SNAP-3 JIMI             
1 40975U 15058M   26132.96993897  .00004121  00000+0  29163-3 0  9999
2 40975  64.7659 331.1663 0104934  69.9706 291.2672 15.01929999108939
SINOD-D 3               
1 40977U 15058P   26134.03267289  .00002838  00000+0  24763-3 0  9994
2 40977  64.7741  22.4511 0118094  71.7793 289.6132 14.93745368109652
HORYU-4                 
1 41340U 16012D   26133.68948449  .00132750  00000+0  72995-3 0  9991
2 41340  30.9895 328.5167 0005335  30.7718 329.3251 15.78201025565330
CELTEE 1                
1 41850U 16067C   26134.09548755  .00003741  00000+0  18078-3 0  9998
2 41850  98.0721 358.3397 0001727  58.8196 301.3206 15.19332088520708
OPTICUBE 04             
1 41851U 16067D   26134.14128561  .00001487  00000+0  97051-4 0  9998
2 41851  98.0735 344.6463 0014503 229.5798 130.4165 15.09509028520037
AEROCUBE 8D             
1 41852U 16067E   26133.35973052  .00004410  00000+0  18605-3 0  9990
2 41852  98.0733   0.8881 0001970 244.2585 115.8447 15.23894158520760
AEROCUBE 8C             
1 41853U 16067F   26134.11243984  .00005086  00000+0  21241-3 0  9990
2 41853  98.0603 358.9701 0005638 163.0497 197.0928 15.24139696520878
CORVUS BC2              
1 42846U 17042X   26134.17996553  .00002218  00000+0  15573-3 0  9995
2 42846  97.4037 296.8650 0011968 222.6707 137.3592 15.06071686481949
CORVUS BC1              
1 42847U 17042Y   26134.04557344  .00002079  00000+0  14560-3 0  9993
2 42847  97.4069 297.5276 0011402 197.1907 162.8936 15.06242665481951
MAKERSAT 0              
1 43016U 17073D   26133.61340448  .00017217  00000+0  48175-3 0  9992
2 43016  97.4683  15.8945 0111576  36.9242 323.9613 15.30593809461171
